GAOFEN-11 01            
1 43585U 18063A   26169.58879744  .00014453  00000+0  21435-3 0  9993
2 43585  97.1289 236.4649 0002967 351.4940   8.6264 15.55327229440563
ICESAT-2                
1 43613U 18070A   26169.59557480  .00007462  00000+0  27061-3 0  9997
2 43613  92.0085 291.3594 0006077 103.8367 256.3559 15.28303429432678
HYSIS                   
1 43719U 18096A   26169.63254970  .00000732  00000+0  10713-3 0  9994
2 43719  97.9840 236.3697 0001764  97.3699 262.7713 14.78620332407634
KAZSTSAT                
1 43783U 18099AB  26169.36507575  .00001413  00000+0  11843-3 0  9992
2 43783  97.4270 201.2397 0008555  66.6862 293.5262 14.99869629411487
SAUDISAT 5A             
1 43831U 18102A   26169.60549472  .00004466  00000+0  16563-3 0  9995
2 43831  97.3065 231.1592 0011106 124.7804 235.4483 15.28060413415895
SAUDISAT 5B             
1 43833U 18102C   26169.62410093  .00004105  00000+0  15124-3 0  9997
2 43833  97.3172 234.2498 0011766 126.8949 233.3371 15.28316312416010
GAOFEN-10R              
1 44622U 19066A   26169.63812205  .00000899  00000+0  11720-3 0  9990
2 44622  98.0498 123.2280 0006753 123.5689 236.6169 14.83063532362594
CARTOSAT-3              
1 44804U 19081A   26169.60630970  .00003437  00000+0  16577-3 0  9999
2 44804  97.4300 231.4511 0013351 143.4891 216.7256 15.19290268363683
GAOFEN-12 01            
1 44819U 19082A   26169.63423829  .00000302  00000+0  46146-4 0  9996
2 44819  97.8100 175.9755 0002238  68.7152 291.4299 14.80459581354302
CSG-1                   
1 44873U 19092A   26169.60409172  .00000298  00000+0  44016-4 0  9997
2 44873  97.8889 353.1860 0001469  89.3396 270.7986 14.82154241351685
NEMO-HD                 
1 46277U 20061F   26169.61979312  .00008689  00000+0  18855-3 0  9997
2 46277  97.1915 231.5583 0002196  80.1842 279.9655 15.44618476322206
SENTINEL-6A             
1 46984U 20086A   26169.33469848 -.00000065  00000+0 -16476-4 0  9996
2 46984  66.0396 132.6689 0007931 270.2170  89.7937 12.80929943260476
CAS500-1                
1 47932U 21022A   26169.64285196  .00005100  00000+0  23887-3 0  9993
2 47932  97.3896  64.8669 0003336 293.2689  66.8195 15.20146473290988
GAOFEN-12 02            
1 48079U 21026A   26169.64545171  .00000276  00000+0  43121-4 0  9995
2 48079  97.9921 167.8201 0003775 215.9507 144.1452 14.80297106281979
PLEIADES NEO 3          
1 48268U 21034A   26169.60379529  .00000660  00000+0  90428-4 0  9991
2 48268  97.8933 244.3503 0001360  87.7118 272.4250 14.81675953277863
PLEIADES NEO 4          
1 49070U 21073E   26169.63754597  .00001355  00000+0  17869-3 0  9990
2 49070  97.8936 244.3795 0001381  87.3121 272.8250 14.81680706261582
LANDSAT 9               
1 49260U 21088A   26169.15790464  .00000270  00000+0  70065-4 0  9990
2 49260  98.2281 239.3236 0001315  86.1021 274.0327 14.57097750251142
CSG-2                   
1 51444U 22008A   26169.63782587 -.00000296  00000+0 -30657-4 0  9993
2 51444  97.8881 353.2138 0001450  85.8874 274.2505 14.82155605236807
GAOFEN-12 03            
1 52912U 22069A   26169.60801972  .00000559  00000+0  80503-4 0  9993
2 52912  97.8278  57.4425 0002113 101.1866 258.9583 14.80036702214827
SWOT                    
1 54754U 22173A   26169.63170230  .00000007  00000+0  62857-5 0  9995
2 54754  77.6106  33.3602 0000266  92.5050 267.6132 14.00169747179357
GAOFEN-12 04            
1 57654U 23123A   26169.62450988  .00000763  00000+0  10712-3 0  9993
2 57654  97.9121  87.6217 0001776  82.5541 277.5872 14.80231056152843
PARS 1                  
1 59065U 24039Q   26169.60924683  .00008888  00000+0  18527-3 0  9992
2 59065  97.4826 150.5738 0011535 107.4492 252.8019 15.45748463128863
RESURS-P 4              
1 59371U 24061A   26169.63468753  .00002425  00000+0  80606-4 0  9990
2 59371  97.2754 117.5082 0002291 125.0818 235.0639 15.32137897123981
LEGION 1                
1 59625U 24081A   26169.54652007  .00002886  00000+0  15073-3 0  9997
2 59625  97.5017 247.3890 0009378  13.2290 346.9187 15.16674788117746
LEGION 2                
1 59626U 24081B   26169.57651786  .00002781  00000+0  14545-3 0  9991
2 59626  97.5018 247.5162 0010619 338.6721  21.4068 15.16653169117759
ALOS-4 (DAICHI-4)       
1 60182U 24123A   26169.57881140  .00001117  00000+0  15640-3 0  9995
2 60182  97.9247 266.7331 0001631  97.1818 262.9579 14.79470113106082
LEGION 3                
1 60452U 24146A   26169.58057857  .00003202  00000+0  17709-3 0  9996
2 60452  45.0025  23.0820 0007802 178.3059 181.7848 15.16046197102235
LEGION 4                
1 60453U 24146B   26169.32010953  .00003566  00000+0  19552-3 0  9996
2 60453  45.0012 116.3892 0013658 314.4569  45.5192 15.16038497101043
SENTINEL-2C             
1 60989U 24157A   26169.50121661  .00000084  00000+0  48881-4 0  9991
2 60989  98.5692 244.2646 0001008  82.4892 277.6406 14.30818144 93179
IONOSFERA-M 1           
1 61735U 24199A   26169.60031036  .00000026  00000+0  31071-4 0  9993
2 61735  98.7171  42.7576 0001973 108.2884 251.8509 14.22754539127900
