OBJECT_NAME,OBJECT_ID,EPOCH,MEAN_MOTION,ECCENTRICITY,INCLINATION,RA_OF_ASC_NODE,ARG_OF_PERICENTER,MEAN_ANOMALY,EPHEMERIS_TYPE,CLASSIFICATION_TYPE,NORAD_CAT_ID,ELEMENT_SET_NO,REV_AT_EPOCH,BSTAR,MEAN_MOTION_DOT,MEAN_MOTION_DDOT
GAOFEN-11 01,2018-063A,2026-06-18T14:07:52.098816,15.55327229,.00029676,97.1289,236.4649,351.4940,8.6264,0,U,43585,999,44056,.21434591E-3,.14453E-3,0
ICESAT-2,2018-070A,2026-06-18T14:17:37.662720,15.28303429,.00060779,92.0085,291.3594,103.8367,256.3559,0,U,43613,999,43267,.27061015E-3,.7462E-4,0
HYSIS,2018-096A,2026-06-18T15:10:52.294080,14.78620332,.0001764,97.9840,236.3697,97.3699,262.7713,0,U,43719,999,40763,.10713134E-3,.732E-5,0
KAZSTSAT,2018-099AB,2026-06-18T08:45:42.544800,14.99869629,.00085557,97.4270,201.2397,66.6862,293.5262,0,U,43783,999,41148,.11843346E-3,.1413E-4,0
SAUDISAT 5A,2018-102A,2026-06-18T14:31:54.743808,15.28060413,.00111069,97.3065,231.1592,124.7804,235.4483,0,U,43831,999,41589,.16563362E-3,.4466E-4,0
SAUDISAT 5B,2018-102C,2026-06-18T14:58:42.320352,15.28316312,.00117667,97.3172,234.2498,126.8949,233.3371,0,U,43833,999,41601,.15124274E-3,.4105E-4,0
GAOFEN-10R,2019-066A,2026-06-18T15:18:53.745120,14.83063532,.0006753,98.0498,123.2280,123.5689,236.6169,0,U,44622,999,36259,.11720116E-3,.899E-5,0
CARTOSAT-3,2019-081A,2026-06-18T14:33:05.158080,15.19290268,.00133518,97.4300,231.4511,143.4891,216.7256,0,U,44804,999,36368,.16576556E-3,.3437E-4,0
GAOFEN-12 01,2019-082A,2026-06-18T15:13:18.188256,14.80459581,.00022383,97.8100,175.9755,68.7152,291.4299,0,U,44819,999,35430,.46145824E-4,.302E-5,0
CSG-1,2019-092A,2026-06-18T14:29:53.524608,14.82154241,.00014698,97.8889,353.1860,89.3396,270.7986,0,U,44873,999,35168,.44016015E-4,.298E-5,0
NEMO-HD,2020-061F,2026-06-18T14:52:30.125568,15.44618476,.00021964,97.1915,231.5583,80.1842,279.9655,0,U,46277,999,32220,.18855303E-3,.8689E-4,0
SENTINEL-6A,2020-086A,2026-06-18T08:01:57.948672,12.80929943,.00079315,66.0396,132.6689,270.2170,89.7937,0,U,46984,999,26047,-.16475952E-4,-.65E-6,0
CAS500-1,2021-022A,2026-06-18T15:25:42.409344,15.20146473,.00033366,97.3896,64.8669,293.2689,66.8195,0,U,47932,999,29098,.23887318E-3,.51E-4,0
GAOFEN-12 02,2021-026A,2026-06-18T15:29:27.027744,14.80297106,.00037758,97.9921,167.8201,215.9507,144.1452,0,U,48079,999,28197,.43121225E-4,.276E-5,0
PLEIADES NEO 3,2021-034A,2026-06-18T14:29:27.913056,14.81675953,.00013602,97.8933,244.3503,87.7118,272.4250,0,U,48268,999,27786,.90427856E-4,.66E-5,0
PLEIADES NEO 4,2021-073E,2026-06-18T15:18:03.971808,14.81680706,.00013819,97.8936,244.3795,87.3121,272.8250,0,U,49070,999,26158,.1786879E-3,.1355E-4,0
LANDSAT 9,2021-088A,2026-06-18T03:47:22.960896,14.57097750,.00013152,98.2281,239.3236,86.1021,274.0327,0,U,49260,999,25114,.7006462E-4,.27E-5,0
CSG-2,2022-008A,2026-06-18T15:18:28.155168,14.82155605,.00014507,97.8881,353.2138,85.8874,274.2505,0,U,51444,999,23680,-.30656917E-4,-.296E-5,0
GAOFEN-12 03,2022-069A,2026-06-18T14:35:32.903808,14.80036702,.00021131,97.8278,57.4425,101.1866,258.9583,0,U,52912,999,21482,.80503047E-4,.559E-5,0
SWOT,2022-173A,2026-06-18T15:09:39.078720,14.00169747,.00002665,77.6106,33.3602,92.5050,267.6132,0,U,54754,999,17935,.6285673E-5,.7E-7,0
GAOFEN-12 04,2023-123A,2026-06-18T14:59:17.653632,14.80231056,.00017764,97.9121,87.6217,82.5541,277.5872,0,U,57654,999,15284,.10711506E-3,.763E-5,0
PARS 1,2024-039Q,2026-06-18T14:37:18.926112,15.45748463,.00115352,97.4826,150.5738,107.4492,252.8019,0,U,59065,999,12886,.18527455E-3,.8888E-4,0
RESURS-P 4,2024-061A,2026-06-18T15:13:57.002592,15.32137897,.00022912,97.2754,117.5082,125.0818,235.0639,0,U,59371,999,12398,.80605734E-4,.2425E-4,0
LEGION 1,2024-081A,2026-06-18T13:06:59.334048,15.16674788,.00093786,97.5017,247.3890,13.2290,346.9187,0,U,59625,999,11774,.15073218E-3,.2886E-4,0
LEGION 2,2024-081B,2026-06-18T13:50:11.143104,15.16653169,.00106196,97.5018,247.5162,338.6721,21.4068,0,U,59626,999,11775,.1454496E-3,.2781E-4,0
ALOS-4 (DAICHI-4),2024-123A,2026-06-18T13:53:29.304960,14.79470113,.0001631,97.9247,266.7331,97.1818,262.9579,0,U,60182,999,10608,.15639993E-3,.1117E-4,0
LEGION 3,2024-146A,2026-06-18T13:56:01.988448,15.16046197,.00078023,45.0025,23.0820,178.3059,181.7848,0,U,60452,999,10223,.17709263E-3,.3202E-4,0
LEGION 4,2024-146B,2026-06-18T07:40:57.463392,15.16038497,.00136588,45.0012,116.3892,314.4569,45.5192,0,U,60453,999,10104,.19552E-3,.3566E-4,0
SENTINEL-2C,2024-157A,2026-06-18T12:01:45.115104,14.30818144,.00010084,98.5692,244.2646,82.4892,277.6406,0,U,60989,999,9317,.4888137E-4,.84E-6,0
IONOSFERA-M 1,2024-199A,2026-06-18T14:24:26.815104,14.22754539,.00019732,98.7171,42.7576,108.2884,251.8509,0,U,61735,999,12790,.31071127E-4,.26E-6,0
